STARLINK-2022           
1 47643U 21012Z   24038.88607622  .00001778  00000+0  13822-3 0  9997
2 47643  53.0516 227.0005 0001422  96.3681 263.7470 15.06405272165591
